IRIDIUM 155             
1 43573U 18061E   19041.60456617  .00000055  00000-0  12449-4 0  9992
2 43573  86.3950  98.2336 0002971 102.1444 258.0085 14.34218088 28727
IRIDIUM 154             
1 43574U 18061F   19041.58553751  .00000056  00000-0  12869-4 0  9994
2 43574  86.3954  98.2485 0001863  96.1944 263.9464 14.34218029 28768
IRIDIUM 163             
1 43575U 18061G   19041.56650386  .00000060  00000-0  14480-4 0  9991
2 43575  86.3952  98.2529 0002319  73.5080 286.6371 14.34218913 28731
IRIDIUM 156             
1 43576U 18061H   19041.61090810  .00000059  00000-0  14164-4 0  9995
2 43576  86.3951  98.2385 0002606  88.5092 271.6403 14.34219590 28720
IRIDIUM 164             
1 43577U 18061J   19041.59187659  .00000068  00000-0  17159-4 0  9998
2 43577  86.3953  98.2462 0002023  90.6822 269.4605 14.34219313 28774
IRIDIUM 159             
1 43578U 18061K   19041.56016829  .00000050  00000-0  10638-4 0  9992
2 43578  86.3951  98.2525 0002055  94.6694 265.4736 14.34217776 28737
IRIDIUM 180             
1 43922U 19002A   19041.48989204  .00000050  00000-0  10741-4 0  9993
2 43922  86.3959  35.0734 0001124  53.8242 306.3058 14.34216685  4375
IRIDIUM 176             
1 43923U 19002B   19041.52192706  .00000072  00000-0  74726-5 0  9990
2 43923  86.6093  35.0744 0002621  86.8954 273.2563 14.72262160  4406
IRIDIUM 168             
1 43924U 19002C   19041.55331357  .00000023  00000-0  11619-5 0  9999
2 43924  86.3961  35.0481 0001793  87.4309 272.7092 14.34217364  4322
IRIDIUM 173             
1 43925U 19002D   19041.47086268  .00000036  00000-0  57973-5 0  9996
2 43925  86.3954  35.0807 0001902  82.5416 277.5996 14.34217121  4309
IRIDIUM 169             
1 43926U 19002E   19041.51368732  .00000037  00000-0  58465-5 0  9999
2 43926  87.4023  35.6467 0004346 139.2488 220.9038 14.38747430  4394
IRIDIUM 172             
1 43927U 19002F   19041.53428438  .00000034  00000-0  51199-5 0  9996
2 43927  86.3958  35.0532 0001826  83.6324 276.5080 14.34215971  4310
IRIDIUM 175             
1 43928U 19002G   19041.51589802  .00000076  00000-0  81994-5 0  9990
2 43928  86.6077  35.0661 0002644 117.1185 243.0302 14.72254072  4397
IRIDIUM 171             
1 43929U 19002H   19041.51526163  .00000058  00000-0  13528-4 0  9999
2 43929  86.3968  35.0694 0001846  88.5638 271.5769 14.34217552  4301
IRIDIUM 170             
1 43930U 19002J   19041.46015426  .00000041  00000-0  25724-5 0  9994
2 43930  86.6094  35.1083 0002879  95.9383 264.2163 14.72260015  4407
IRIDIUM 167             
1 43931U 19002K   19041.57867624  .00000016  00000-0 -15024-5 0  9997
2 43931  86.3954  35.0341 0001092  56.2707 303.8593 14.34216957  4313
